#aV2023 10  5  0  0  0.00000000     288 DD+AD WGS84 FIT  NGA
## 2282 345600.00000000   300.00000000 60222 0.0000000000000
+   32     1  2  3  4  5  6  7  8  9 10 11 12 13 14 15 16 17
+         18 19 20 21 22 23 24 25 26 27 28 29 30 31 32  0  0
+          0  0  0  0  0  0  0  0  0  0  0  0  0  0  0  0  0
+          0  0  0  0  0  0  0  0  0  0  0  0  0  0  0  0  0
+          0  0  0  0  0  0  0  0  0  0  0  0  0  0  0  0  0
++         2  2  2  2  2  2  2  2  2  2  2  2  2  2  2  2  2
++         2  2  2  2  2  2  2  2  2  2  2  2  2  2  2  0  0
++         0  0  0  0  0  0  0  0  0  0  0  0  0  0  0  0  0
++         0  0  0  0  0  0  0  0  0  0  0  0  0  0  0  0  0
++         0  0  0  0  0  0  0  0  0  0  0  0  0  0  0  0  0
%c cc cc ccc ccc cccc cccc cccc cccc ccccc ccccc ccccc ccccc
%c cc cc ccc ccc cccc cccc cccc cccc ccccc ccccc ccccc ccccc
%f  0.0000000  0.000000000  0.00000000000  0.000000000000000
%f  0.0000000  0.000000000  0.00000000000  0.000000000000000
%i    0    0    0    0      0      0      0      0         0
%i    0    0    0    0      0      0      0      0         0
/*      NGA, ST. LOUIS,MO.                                  
/*   EPHEMERIS COMPUTED FROM 2 DAYS OF DATA                 
/*   EPOCHA v8 SMOOTHER                                     
/*   G2139 IERS2010 SATIGS SATAPC                           
*  2023 10  5 23 20  0.00000000
P  1 -13640.446387 -13730.960898 -18684.154728    164.132829                    
V  1  22780.715357   1615.587169 -17825.999321     -0.005799                    
P  2  -7010.130815 -14318.061888 -20774.358244   -545.618491                    
V  2  27492.946880   -628.053795  -8463.745823      0.046633                    
P  3 -12441.462616 -23436.221124   1982.191794    -96.120695                    
V  3    758.335960  -3318.417387 -31989.425232      0.223051                    
P  4  -6230.283104 -15555.066507  20584.754778    176.134558                    
V  4  16440.201447 -20353.743670 -10529.489617      0.109041                    
P  5   3434.126719  23526.128537  11558.354621   -145.383572                    
V  5  -9056.141045 -12158.478614  27104.731181     -0.014566                    
P  6 -22368.721632   6408.635479  12960.942133    536.777367                    
V  6 -16053.737672  -2995.441429 -26268.529274     -0.079193                    
P  7 -25471.669262  -6407.901384   5878.205138     48.275271                    
V  7   6969.490005  -1966.527876  30063.669540     -0.103247                    
P  8   1633.391786 -21758.547533 -14935.327609   -145.649453                    
V  8  12394.236743 -14605.067877  23144.048874     -0.018746                    
P  9 -13999.648305  -6395.387260  21563.150263    -40.607015                    
V  9  15031.027589 -23145.291475   2830.514388      0.106348                    
P 10  15048.268477  -2083.055321 -21639.809000    -56.163924                    
V 10  11640.985584  25262.478180   5299.671337     -0.015235                    
P 11 -11073.036873  12789.048181  20478.848303   -401.676689                    
V 11 -25606.652044  -4401.167402 -11156.635988     -0.176518                    
P 12   9081.469776  24997.288740   -822.477592   -432.614838                    
V 12  -2724.491812    291.830396 -31759.015985     -0.042620                    
P 13 -11565.425020  21943.937700  -9388.092907    580.665401                    
V 13  -9710.127367   6946.129302  29013.491220      0.043734                    
P 14 -16779.259978  -1543.248242 -20544.517990    205.492399                    
V 14  -9606.996133 -24335.038847   9494.431193      0.111659                    
P 15   2167.762298  21596.412676 -15638.960374     84.260942                    
V 15 -10845.131973  16010.726361  21507.987452      0.037120                    
P 16   3356.504533 -21186.166255  15049.362334   -443.694091                    
V 16   9039.224395  17819.168803  23048.332044      0.059200                    
P 17 -19960.560813   9232.434557 -14538.213161    723.872172                    
V 17  10415.328110 -16189.105687 -23755.737480     -0.000209                    
P 18  25999.742688   4910.744146   3266.664866   -439.690340                    
V 18  -4316.221178   1770.802229  31582.402617     -0.119821                    
P 19 -20268.504467  14929.713838  -8098.636984    380.981924                    
V 19   4692.335336  -9294.924160 -29933.110168      0.052061                    
P 20  -4982.606343  17315.314855  19613.973332    408.318057                    
V 20 -15232.299636 -19603.383373  13278.741705     -0.019470                    
P 21  -4000.286088 -14797.459898 -21253.067889    147.433741                    
V 21  28126.363524   -136.788686  -4185.987500     -0.008626                    
P 22 -13617.257966   6266.567580 -21477.182120    108.455772                    
V 22  -9696.085628 -26644.257071  -1321.158882     -0.072455                    
P 23  17939.869935  10901.459979 -16372.050844     78.331767                    
V 23   8039.652544  19127.541460  21361.666585      0.056288                    
P 24   9342.536435  14970.513359 -20342.647101   -338.410693                    
V 24 -24969.503838   1133.909892 -10415.724974     -0.100983                    
P 25  16888.786733  17627.218210  10465.136680    471.294394                    
V 25   3670.949743  13434.799366 -27447.260497      0.018837                    
P 26   9854.269626 -13456.314567  20479.163026    224.862427                    
V 26  13982.322996  22503.684046   8363.373194     -0.021189                    
P 27  12034.236326 -23027.541403  -4555.947502    -50.616676                    
V 27   5556.248578  -2891.938148  31423.039359     -0.059282                    
P 28  23375.876411  -6398.964241  10845.790968    -20.472801                    
V 28  13665.329908   3113.382428 -27556.038243     -0.064236                    
P 29  13253.403787   7188.821515  21828.947024   -609.877844                    
V 29 -17393.871887  21651.250796   3321.292119     -0.002699                    
P 30 -26295.551046    905.908260  -4435.976570   -481.379300                    
V 30  -5437.713363  -3823.410252  30348.333591      0.036054                    
P 31  16708.952599 -10762.072255  17624.680398   -224.288410                    
V 31  22330.264275   3955.525854 -18140.301626     -0.004720                    
P 32  19308.169168 -13348.801513 -12044.735175   -568.483332                    
V 32  -6706.795610  14377.521735 -26493.399873     -0.055202                    
EOF
